{
    "links": {
        "self": "http://www.neowsapp.com/rest/v1/neo/3879552?api_key=iIulBulltgU6a56xZRHN4H3l9WmuAYTsLGpBGhQ2"
    },
    "id": "3879552",
    "neo_reference_id": "3879552",
    "name": "(2019 UU5)",
    "designation": "2019 UU5",
    "nasa_jpl_url": "http://ssd.jpl.nasa.gov/sbdb.cgi?sstr=3879552",
    "absolute_magnitude_h": 25.3,
    "estimated_diameter": {
        "kilometers": {
            "estimated_diameter_min": 0.0231502122,
            "estimated_diameter_max": 0.0517654482
        },
        "meters": {
            "estimated_diameter_min": 23.150212221,
            "estimated_diameter_max": 51.7654482198
        },
        "miles": {
            "estimated_diameter_min": 0.0143848705,
            "estimated_diameter_max": 0.0321655483
        },
        "feet": {
            "estimated_diameter_min": 75.9521422633,
            "estimated_diameter_max": 169.8341531374
        }
    },
    "is_potentially_hazardous_asteroid": false,
    "close_approach_data": [
        {
            "close_approach_date": "2019-10-26",
            "close_approach_date_full": "2019-Oct-26 17:56",
            "epoch_date_close_approach": 1572112560000,
            "relative_velocity": {
                "kilometers_per_second": "7.1996415145",
                "kilometers_per_hour": "25918.7094523328",
                "miles_per_hour": "16104.8781038676"
            },
            "miss_distance": {
                "astronomical": "0.0387901976",
                "lunar": "15.0893868664",
                "kilometers": "5802930.937839112",
                "miles": "3605774.0828072656"
            },
            "orbiting_body": "Earth"
        },
        {
            "close_approach_date": "2102-10-19",
            "close_approach_date_full": "2102-Oct-19 06:37",
            "epoch_date_close_approach": 4190683020000,
            "relative_velocity": {
                "kilometers_per_second": "7.6413740159",
                "kilometers_per_hour": "27508.946457225",
                "miles_per_hour": "17092.9895361574"
            },
            "miss_distance": {
                "astronomical": "0.0390707441",
                "lunar": "15.1985194549",
                "kilometers": "5844900.096675067",
                "miles": "3631852.5088352446"
            },
            "orbiting_body": "Earth"
        }
    ],
    "orbital_data": {
        "orbit_id": "3",
        "orbit_determination_date": "2019-10-26 08:19:42",
        "first_observation_date": "2019-10-23",
        "last_observation_date": "2019-10-25",
        "data_arc_in_days": 2,
        "observations_used": 19,
        "orbit_uncertainty": "8",
        "minimum_orbit_intersection": ".0311513",
        "jupiter_tisserand_invariant": "4.068",
        "epoch_osculation": "2458781.5",
        "eccentricity": ".4065966075385529",
        "semi_major_axis": "1.71573769882142",
        "inclination": "9.363668221989077",
        "ascending_node_longitude": "205.2048852635414",
        "orbital_period": "820.8707251860289",
        "perihelion_distance": "1.018124571054627",
        "perihelion_argument": "195.6657968744603",
        "aphelion_distance": "2.413350826588212",
        "perihelion_time": "2458791.316850191602",
        "mean_anomaly": "355.6947349192215",
        "mean_motion": ".438558702307742",
        "equinox": "J2000",
        "orbit_class": {
            "orbit_class_type": "AMO",
            "orbit_class_description": "Near-Earth asteroid orbits similar to that of 1221 Amor",
            "orbit_class_range": "1.017 AU < q (perihelion) < 1.3 AU"
        }
    },
    "is_sentry_object": false
}